NORAD_CAT_ID,OBJECT_NAME,OBJECT_TYPE,EPOCH,MEAN_MOTION,ECCENTRICITY,INCLINATION,RA_OF_ASC_NODE,ARG_OF_PERICENTER,MEAN_ANOMALY,BSTAR,MEAN_MOTION_DOT,MEAN_MOTION_DDOT,TLE_LINE0,TLE_LINE1,TLE_LINE2,SEMIMAJOR_AXIS,PERIOD,APOGEE,PERIGEE,DECAYED
51963.0,STARLINK-3675,PAYLOAD,2024-07-03 14:50:34,15.08032673,0.0001343,53.0535,261.1793,94.7504,265.3639,1.6932e-05,-2.2e-07,0.0,0 STARLINK-3675,1 51963U 22025H   24185.61845915 -.00000022  00000-0  16932-4 0  9994,2 51963  53.0535 261.1793 0001343  94.7504 265.3639 15.08032673128455,6920.349,95.489,543.144,541.285,0.0
51963.0,STARLINK-3675,PAYLOAD,2024-07-04 14:42:07,15.08040373,0.0001419,53.0534,256.7056,93.8841,266.2311,0.00029516,4.313e-05,0.0,0 STARLINK-3675,1 51963U 22025H   24186.61258212  .00004313  00000-0  29516-3 0  9990,2 51963  53.0534 256.7056 0001419  93.8841 266.2311 15.08040373128604,6920.326,95.488,543.173,541.209,0.0
51963.0,STARLINK-3675,PAYLOAD,2024-07-05 11:22:46,15.08041243,0.0001366,53.0523,252.8284,79.5104,280.6039,0.00023552,3.384e-05,0.0,0 STARLINK-3675,1 51963U 22025H   24187.47415436  .00003384  00000-0  23552-3 0  9999,2 51963  53.0523 252.8284 0001366  79.5104 280.6039 15.08041243129825,6920.323,95.488,543.133,541.243,0.0
51963.0,STARLINK-3675,PAYLOAD,2024-07-05 20:55:23,15.08034753,0.0001338,53.0511,251.0397,78.4804,281.6336,6.419e-05,7.14e-06,0.0,0 STARLINK-3675,1 51963U 22025H   24187.87180498  .00000714  00000-0  64190-4 0  9998,2 51963  53.0511 251.0397 0001338  78.4804 281.6336 15.08034753128796,6920.343,95.489,543.134,541.282,0.0
51963.0,STARLINK-3675,PAYLOAD,2024-07-06 04:52:34,15.08030765,0.0001589,53.0541,249.5493,85.0577,275.0594,-2.3725e-05,-6.55e-06,0.0,0 STARLINK-3675,1 51963U 22025H   24188.20318245 -.00000655  00000-0 -23725-4 0  9994,2 51963  53.0541 249.5493 0001589  85.0577 275.0594 15.08030765129936,6920.355,95.489,543.32,541.12,0.0
51963.0,STARLINK-3675,PAYLOAD,2024-07-06 09:38:53,15.08030446,0.0001505,53.054,248.6536,96.4654,263.6507,-5.1714e-05,-1.091e-05,0.0,0 STARLINK-3675,1 51963U 22025H   24188.40200593 -.00001091  00000-0 -51714-4 0  9996,2 51963  53.0540 248.6536 0001505  96.4654 263.6507 15.08030446128878,6920.356,95.489,543.262,541.179,0.0
51963.0,STARLINK-3675,PAYLOAD,2024-07-06 20:46:56,15.08029417,0.0001543,53.0538,246.5668,93.3322,266.7844,-7.2375e-05,-1.413e-05,0.0,0 STARLINK-3675,1 51963U 22025H   24188.86593130 -.00001413  00000-0 -72375-4 0  9992,2 51963  53.0538 246.5668 0001543  93.3322 266.7844 15.08029417128940,6920.359,95.489,543.292,541.156,0.0
51963.0,STARLINK-3675,PAYLOAD,2024-07-07 09:30:26,15.08030774,0.0001403,53.0554,244.1808,85.6518,274.4632,1.8391e-05,0.0,0.0,0 STARLINK-3675,1 51963U 22025H   24189.39613540  .00000000  00000-0  18391-4 0  9996,2 51963  53.0554 244.1808 0001403  85.6518 274.4632 15.08030774130115,6920.355,95.489,543.191,541.249,0.0
51963.0,STARLINK-3675,PAYLOAD,2024-07-08 10:57:24,15.08032557,0.0001349,53.0541,239.4071,87.4402,272.6742,0.00012621,1.68e-05,0.0,0 STARLINK-3675,1 51963U 22025H   24190.45653176  .00001680  00000-0  12621-3 0  9998,2 51963  53.0541 239.4071 0001349  87.4402 272.6742 15.08032557130271,6920.35,95.489,543.148,541.281,0.0
51963.0,STARLINK-3675,PAYLOAD,2024-07-08 20:30:01,15.08032236,0.0001355,53.0542,237.6177,87.1994,272.9151,0.00012011,1.585e-05,0.0,0 STARLINK-3675,1 51963U 22025H   24190.85418242  .00001585  00000-0  12011-3 0  9992,2 51963  53.0542 237.6177 0001355  87.1994 272.9151 15.08032236129245,6920.351,95.489,543.153,541.278,0.0
51963.0,STARLINK-3675,PAYLOAD,2024-07-09 12:24:22,15.08035263,0.0001342,53.0537,234.634,91.9413,268.173,0.00010234,1.308e-05,0.0,0 STARLINK-3675,1 51963U 22025H   24191.51693015  .00001308  00000-0  10234-3 0  9997,2 51963  53.0537 234.6340 0001342  91.9413 268.1730 15.08035263130439,6920.341,95.488,543.135,541.278,0.0
51963.0,STARLINK-3675,PAYLOAD,2024-07-10 02:43:18,15.08029367,0.000122,53.0531,231.9477,100.4747,259.638,-5.5442e-07,-2.95e-06,0.0,0 STARLINK-3675,1 51963U 22025H   24192.11341071 -.00000295  00000-0 -55442-6 0  9995,2 51963  53.0531 231.9477 0001220 100.4747 259.6380 15.08029367130529,6920.359,95.489,543.069,541.38,0.0
51963.0,STARLINK-3675,PAYLOAD,2024-07-10 09:05:03,15.08027952,0.0001234,53.0534,230.756,91.4193,268.6938,-4.962e-06,-3.63e-06,0.0,0 STARLINK-3675,1 51963U 22025H   24192.37851173 -.00000363  00000-0 -49620-5 0  9998,2 51963  53.0534 230.7560 0001234  91.4193 268.6938 15.08027952129470,6920.364,95.489,543.083,541.375,0.0
51963.0,STARLINK-3675,PAYLOAD,2024-07-11 12:07:27,15.08035982,0.0001402,53.0538,225.6856,89.9245,270.1905,7.7913e-05,9.27e-06,0.0,0 STARLINK-3675,1 51963U 22025H   24193.50517843  .00000927  00000-0  77913-4 0  9996,2 51963  53.0538 225.6856 0001402  89.9245 270.1905 15.08035982129645,6920.339,95.488,543.174,541.234,0.0
51963.0,STARLINK-3675,PAYLOAD,2024-07-12 11:59:00,15.08028936,0.0001361,53.0534,221.2111,85.9533,274.1613,6.0213e-05,6.52e-06,0.0,0 STARLINK-3675,1 51963U 22025H   24194.49930984  .00000652  00000-0  60213-4 0  9990,2 51963  53.0534 221.2111 0001361  85.9533 274.1613 15.08028936130886,6920.361,95.489,543.167,541.284,0.0
51963.0,STARLINK-3675,PAYLOAD,2024-07-13 08:39:40,15.08035434,0.0001355,53.0536,217.3335,85.9983,274.1162,5.9423e-05,6.39e-06,0.0,0 STARLINK-3675,1 51963U 22025H   24195.36087995  .00000639  00000-0  59423-4 0  9998,2 51963  53.0536 217.3335 0001355  85.9983 274.1162 15.08035434129927,6920.341,95.488,543.143,541.268,0.0
51963.0,STARLINK-3675,PAYLOAD,2024-07-13 18:12:17,15.08032436,0.0001276,53.053,215.5437,85.058,275.0556,5.6956e-05,6.01e-06,0.0,0 STARLINK-3675,1 51963U 22025H   24195.75853120  .00000601  00000-0  56956-4 0  9999,2 51963  53.0530 215.5437 0001276  85.0580 275.0556 15.08032436131075,6920.35,95.489,543.098,541.332,0.0
51963.0,STARLINK-3675,PAYLOAD,2024-07-14 10:06:39,15.08029049,0.0001385,53.0538,212.5625,90.4533,269.6616,5.375e-05,5.51e-06,0.0,0 STARLINK-3675,1 51963U 22025H   24196.42128479  .00000551  00000-0  53750-4 0  9999,2 51963  53.0538 212.5625 0001385  90.4533 269.6616 15.08029049130080,6920.36,95.489,543.184,541.267,0.0
51963.0,STARLINK-3675,PAYLOAD,2024-07-14 18:03:49,15.0802952,0.0001381,53.0538,211.071,89.5638,270.551,4.9259e-05,4.81e-06,0.0,0 STARLINK-3675,1 51963U 22025H   24196.75265972  .00000481  00000-0  49259-4 0  9996,2 51963  53.0538 211.0710 0001381  89.5638 270.5510 15.08029520131225,6920.359,95.489,543.18,541.268,0.0
51963.0,STARLINK-3675,PAYLOAD,2024-07-15 09:58:11,15.08033365,0.0001402,53.0538,208.0884,90.1707,269.9443,5.9705e-05,6.44e-06,0.0,0 STARLINK-3675,1 51963U 22025H   24197.41540696  .00000644  00000-0  59705-4 0  9997,2 51963  53.0538 208.0884 0001402  90.1707 269.9443 15.08033365130231,6920.347,95.489,543.182,541.242,0.0
51963.0,STARLINK-3675,PAYLOAD,2024-07-15 17:55:22,15.08021408,0.0001419,53.0541,206.5971,89.9858,270.1294,-3.4601e-05,-8.24e-06,0.0,0 STARLINK-3675,1 51963U 22025H   24197.74679326 -.00000824  00000-0 -34601-4 0  9996,2 51963  53.0541 206.5971 0001419  89.9858 270.1294 15.08021408131375,6920.384,95.489,543.231,541.267,0.0
51963.0,STARLINK-3675,PAYLOAD,2024-07-16 06:38:52,15.08021117,0.0001359,53.0533,204.21,90.7051,269.4095,-6.0953e-06,-3.81e-06,0.0,0 STARLINK-3675,1 51963U 22025H   24198.27699497 -.00000381  00000-0 -60953-5 0  9994,2 51963  53.0533 204.2100 0001359  90.7051 269.4095 15.08021117130368,6920.385,95.489,543.19,541.309,0.0
51963.0,STARLINK-3675,PAYLOAD,2024-07-17 04:54:58,15.0803021,0.0001406,53.0538,200.0349,91.5477,268.5674,8.0724e-05,9.71e-06,0.0,0 STARLINK-3675,1 51963U 22025H   24199.20484001  .00000971  00000-0  80724-4 0  9991,2 51963  53.0538 200.0349 0001406  91.5477 268.5674 15.08030210131599,6920.357,95.489,543.195,541.249,0.0
51963.0,STARLINK-3675,PAYLOAD,2024-07-17 06:30:24,15.08032012,0.0001356,53.0534,199.7353,91.323,268.7915,0.00010095,1.286e-05,0.0,0 STARLINK-3675,1 51963U 22025H   24199.27111347  .00001286  00000-0  10095-3 0  9991,2 51963  53.0534 199.7353 0001356  91.3230 268.7915 15.08032012130516,6920.351,95.489,543.155,541.278,0.0
51963.0,STARLINK-3675,PAYLOAD,2024-07-18 06:21:56,15.08040181,0.0001396,53.0522,195.2613,93.9211,266.1938,0.00034581,5.103e-05,0.0,0 STARLINK-3675,1 51963U 22025H   24200.26523817  .00005103  00000-0  34581-3 0  9990,2 51963  53.0522 195.2613 0001396  93.9211 266.1938 15.08040181131754,6920.326,95.488,543.157,541.225,0.0
51963.0,STARLINK-3675,PAYLOAD,2024-07-19 04:38:02,15.08037624,0.0001441,53.0523,191.0856,95.3915,264.7239,9.5458e-05,1.201e-05,0.0,0 STARLINK-3675,1 51963U 22025H   24201.19308473  .00001201  00000-0  95458-4 0  9998,2 51963  53.0523 191.0856 0001441  95.3915 264.7239 15.08037624131897,6920.334,95.488,543.196,541.202,0.0
51963.0,STARLINK-3675,PAYLOAD,2024-07-19 09:24:20,15.08039583,0.0001433,53.052,190.1903,95.3814,264.7339,0.00010994,1.426e-05,0.0,0 STARLINK-3675,1 51963U 22025H   24201.39190746  .00001426  00000-0  10994-3 0  9992,2 51963  53.0520 190.1903 0001433  95.3814 264.7339 15.08039583130836,6920.328,95.488,543.185,541.201,0.0
51963.0,STARLINK-3675,PAYLOAD,2024-07-19 15:46:05,15.08036245,0.0001402,53.0518,188.9966,94.7155,265.3995,3.9021e-05,3.22e-06,0.0,0 STARLINK-3675,1 51963U 22025H   24201.65700702  .00000322  00000-0  39021-4 0  9997,2 51963  53.0518 188.9966 0001402  94.7155 265.3995 15.08036245130875,6920.338,95.488,543.173,541.233,0.0
51963.0,STARLINK-3675,PAYLOAD,2024-07-20 06:05:01,15.08033473,0.000135,53.0534,186.3137,91.7971,268.3173,7.131e-06,-1.75e-06,0.0,0 STARLINK-3675,1 51963U 22025H   24202.25348442 -.00000175  00000-0  71310-5 0  9998,2 51963  53.0534 186.3137 0001350  91.7971 268.3173 15.08033473132053,6920.347,95.489,543.146,541.277,0.0
51963.0,STARLINK-3675,PAYLOAD,2024-07-20 15:37:37,15.08035223,0.0001353,53.0533,184.5241,91.0125,269.102,-3.3587e-06,-3.38e-06,0.0,0 STARLINK-3675,1 51963U 22025H   24202.65113281 -.00000338  00000-0 -33587-5 0  9999,2 51963  53.0533 184.5241 0001353  91.0125 269.1020 15.08035223131026,6920.341,95.488,543.143,541.27,0.0
